[{
    "OBJECT_NAME": "STARLINK-3849",
    "OBJECT_ID": "2022-045N",
    "EPOCH": "2023-07-17T02:05:27.452256",
    "MEAN_MOTION": 15.08840436,
    "ECCENTRICITY": 9.84e-5,
    "INCLINATION": 53.2157,
    "RA_OF_ASC_NODE": 228.3671,
    "ARG_OF_PERICENTER": 80.2746,
    "MEAN_ANOMALY": 279.8358,
    "EPHEMERIS_TYPE": 0,
    "CLASSIFICATION_TYPE": "U",
    "NORAD_CAT_ID": 52343,
    "ELEMENT_SET_NO": 999,
    "REV_AT_EPOCH": 6972,
    "BSTAR": 2.1263e-5,
    "MEAN_MOTION_DOT": 5.1e-7,
    "MEAN_MOTION_DDOT": 0
},{
    "OBJECT_NAME": "STARLINK-3851",
    "OBJECT_ID": "2022-045P",
    "EPOCH": "2023-07-17T09:42:31.099968",
    "MEAN_MOTION": 15.08843604,
    "ECCENTRICITY": 9.09e-5,
    "INCLINATION": 53.2162,
    "RA_OF_ASC_NODE": 217.0126,
    "ARG_OF_PERICENTER": 81.6432,
    "MEAN_ANOMALY": 278.4664,
    "EPHEMERIS_TYPE": 0,
    "CLASSIFICATION_TYPE": "U",
    "NORAD_CAT_ID": 52344,
    "ELEMENT_SET_NO": 999,
    "REV_AT_EPOCH": 6990,
    "BSTAR": 3.2755e-5,
    "MEAN_MOTION_DOT": 2.34e-6,
    "MEAN_MOTION_DDOT": 0
},{
    "OBJECT_NAME": "STARLINK-3852",
    "OBJECT_ID": "2022-045Q",
    "EPOCH": "2023-07-16T02:10:41.708064",
    "MEAN_MOTION": 15.08833752,
    "ECCENTRICITY": 9.35e-5,
    "INCLINATION": 53.2155,
    "RA_OF_ASC_NODE": 222.8426,
    "ARG_OF_PERICENTER": 80.9492,
    "MEAN_ANOMALY": 279.1606,
    "EPHEMERIS_TYPE": 0,
    "CLASSIFICATION_TYPE": "U",
    "NORAD_CAT_ID": 52345,
    "ELEMENT_SET_NO": 999,
    "REV_AT_EPOCH": 6969,
    "BSTAR": -1.0273e-5,
    "MEAN_MOTION_DOT": -4.51e-6,
    "MEAN_MOTION_DDOT": 0
},{
    "OBJECT_NAME": "STARLINK-3812",
    "OBJECT_ID": "2022-045R",
    "EPOCH": "2023-07-16T09:42:30.470112",
    "MEAN_MOTION": 15.08837581,
    "ECCENTRICITY": 8.34e-5,
    "INCLINATION": 53.2149,
    "RA_OF_ASC_NODE": 221.4395,
    "ARG_OF_PERICENTER": 88.6134,
    "MEAN_ANOMALY": 271.4954,
    "EPHEMERIS_TYPE": 0,
    "CLASSIFICATION_TYPE": "U",
    "NORAD_CAT_ID": 52346,
    "ELEMENT_SET_NO": 999,
    "REV_AT_EPOCH": 6975,
    "BSTAR": 3.2457e-6,
    "MEAN_MOTION_DOT": -2.36e-6,
    "MEAN_MOTION_DDOT": 0
},{
    "OBJECT_NAME": "STARLINK-3826",
    "OBJECT_ID": "2022-045S",
    "EPOCH": "2023-07-16T02:01:28.542432",
    "MEAN_MOTION": 15.08834952,
    "ECCENTRICITY": 0.0001092,
    "INCLINATION": 53.2155,
    "RA_OF_ASC_NODE": 222.878,
    "ARG_OF_PERICENTER": 77.7172,
    "MEAN_ANOMALY": 282.3942,
    "EPHEMERIS_TYPE": 0,
    "CLASSIFICATION_TYPE": "U",
    "NORAD_CAT_ID": 52347,
    "ELEMENT_SET_NO": 999,
    "REV_AT_EPOCH": 6970,
    "BSTAR": 4.8521e-5,
    "MEAN_MOTION_DOT": 4.84e-6,
    "MEAN_MOTION_DDOT": 0
},{
    "OBJECT_NAME": "STARLINK-3829",
    "OBJECT_ID": "2022-045T",
    "EPOCH": "2023-07-16T07:55:08.935392",
    "MEAN_MOTION": 15.08834436,
    "ECCENTRICITY": 0.0001082,
    "INCLINATION": 53.2161,
    "RA_OF_ASC_NODE": 221.7686,
    "ARG_OF_PERICENTER": 86.4877,
    "MEAN_ANOMALY": 273.6239,
    "EPHEMERIS_TYPE": 0,
    "CLASSIFICATION_TYPE": "U",
    "NORAD_CAT_ID": 52348,
    "ELEMENT_SET_NO": 999,
    "REV_AT_EPOCH": 6974,
    "BSTAR": 6.5857e-5,
    "MEAN_MOTION_DOT": 7.6e-6,
    "MEAN_MOTION_DDOT": 0
},{
    "OBJECT_NAME": "STARLINK-3819",
    "OBJECT_ID": "2022-045U",
    "EPOCH": "2023-07-17T11:12:35.659296",
    "MEAN_MOTION": 15.08841578,
    "ECCENTRICITY": 0.0001011,
    "INCLINATION": 53.2159,
    "RA_OF_ASC_NODE": 216.6633,
    "ARG_OF_PERICENTER": 92.3256,
    "MEAN_ANOMALY": 267.7852,
    "EPHEMERIS_TYPE": 0,
    "CLASSIFICATION_TYPE": "U",
    "NORAD_CAT_ID": 52349,
    "ELEMENT_SET_NO": 999,
    "REV_AT_EPOCH": 6991,
    "BSTAR": 4.7659e-5,
    "MEAN_MOTION_DOT": 4.71e-6,
    "MEAN_MOTION_DDOT": 0
},{
    "OBJECT_NAME": "STARLINK-3754",
    "OBJECT_ID": "2022-045V",
    "EPOCH": "2023-07-16T18:57:32.913792",
    "MEAN_MOTION": 15.08838272,
    "ECCENTRICITY": 0.0001143,
    "INCLINATION": 53.216,
    "RA_OF_ASC_NODE": 219.7037,
    "ARG_OF_PERICENTER": 82.0721,
    "MEAN_ANOMALY": 278.0401,
    "EPHEMERIS_TYPE": 0,
    "CLASSIFICATION_TYPE": "U",
    "NORAD_CAT_ID": 52350,
    "ELEMENT_SET_NO": 999,
    "REV_AT_EPOCH": 6981,
    "BSTAR": 4.5863e-5,
    "MEAN_MOTION_DOT": 4.42e-6,
    "MEAN_MOTION_DDOT": 0
},{
    "OBJECT_NAME": "STARLINK-3838",
    "OBJECT_ID": "2022-045X",
    "EPOCH": "2023-07-17T07:24:43.676640",
    "MEAN_MOTION": 15.08841579,
    "ECCENTRICITY": 9.97e-5,
    "INCLINATION": 53.2159,
    "RA_OF_ASC_NODE": 217.3738,
    "ARG_OF_PERICENTER": 84.2448,
    "MEAN_ANOMALY": 275.8658,
    "EPHEMERIS_TYPE": 0,
    "CLASSIFICATION_TYPE": "U",
    "NORAD_CAT_ID": 52352,
    "ELEMENT_SET_NO": 999,
    "REV_AT_EPOCH": 6989,
    "BSTAR": 7.0273e-5,
    "MEAN_MOTION_DOT": 8.31e-6,
    "MEAN_MOTION_DDOT": 0
},{
    "OBJECT_NAME": "STARLINK-3807",
    "OBJECT_ID": "2022-045Y",
    "EPOCH": "2023-07-16T07:44:32.705664",
    "MEAN_MOTION": 15.08833936,
    "ECCENTRICITY": 0.0001322,
    "INCLINATION": 53.2155,
    "RA_OF_ASC_NODE": 221.8018,
    "ARG_OF_PERICENTER": 108.9992,
    "MEAN_ANOMALY": 251.1143,
    "EPHEMERIS_TYPE": 0,
    "CLASSIFICATION_TYPE": "U",
    "NORAD_CAT_ID": 52353,
    "ELEMENT_SET_NO": 999,
    "REV_AT_EPOCH": 6974,
    "BSTAR": -3.2548e-5,
    "MEAN_MOTION_DOT": -8.06e-6,
    "MEAN_MOTION_DDOT": 0
},{
    "OBJECT_NAME": "STARLINK-3876",
    "OBJECT_ID": "2022-045Z",
    "EPOCH": "2023-07-17T10:19:36.464160",
    "MEAN_MOTION": 15.08839499,
    "ECCENTRICITY": 9.93e-5,
    "INCLINATION": 53.2151,
    "RA_OF_ASC_NODE": 216.8278,
    "ARG_OF_PERICENTER": 87.3401,
    "MEAN_ANOMALY": 272.7705,
    "EPHEMERIS_TYPE": 0,
    "CLASSIFICATION_TYPE": "U",
    "NORAD_CAT_ID": 52354,
    "ELEMENT_SET_NO": 999,
    "REV_AT_EPOCH": 6991,
    "BSTAR": 9.3793e-5,
    "MEAN_MOTION_DOT": 1.205e-5,
    "MEAN_MOTION_DDOT": 0
},{
    "OBJECT_NAME": "STARLINK-3877",
    "OBJECT_ID": "2022-045AA",
    "EPOCH": "2023-07-17T07:30:01.878336",
    "MEAN_MOTION": 15.08841335,
    "ECCENTRICITY": 9.25e-5,
    "INCLINATION": 53.2162,
    "RA_OF_ASC_NODE": 217.3576,
    "ARG_OF_PERICENTER": 88.3028,
    "MEAN_ANOMALY": 271.807,
    "EPHEMERIS_TYPE": 0,
    "CLASSIFICATION_TYPE": "U",
    "NORAD_CAT_ID": 52355,
    "ELEMENT_SET_NO": 999,
    "REV_AT_EPOCH": 6989,
    "BSTAR": 4.136e-5,
    "MEAN_MOTION_DOT": 3.71e-6,
    "MEAN_MOTION_DDOT": 0
},{
    "OBJECT_NAME": "STARLINK-3801",
    "OBJECT_ID": "2022-045AB",
    "EPOCH": "2023-07-17T00:52:36.039072",
    "MEAN_MOTION": 15.08837677,
    "ECCENTRICITY": 0.0001062,
    "INCLINATION": 53.217,
    "RA_OF_ASC_NODE": 218.6251,
    "ARG_OF_PERICENTER": 98.1862,
    "MEAN_ANOMALY": 261.925,
    "EPHEMERIS_TYPE": 0,
    "CLASSIFICATION_TYPE": "U",
    "NORAD_CAT_ID": 52356,
    "ELEMENT_SET_NO": 999,
    "REV_AT_EPOCH": 6985,
    "BSTAR": 3.216e-5,
    "MEAN_MOTION_DOT": 2.24e-6,
    "MEAN_MOTION_DDOT": 0
},{
    "OBJECT_NAME": "STARLINK-3821",
    "OBJECT_ID": "2022-045AC",
    "EPOCH": "2023-07-17T07:19:25.455936",
    "MEAN_MOTION": 15.08862007,
    "ECCENTRICITY": 0.0001029,
    "INCLINATION": 53.2169,
    "RA_OF_ASC_NODE": 217.3902,
    "ARG_OF_PERICENTER": 88.5734,
    "MEAN_ANOMALY": 271.5376,
    "EPHEMERIS_TYPE": 0,
    "CLASSIFICATION_TYPE": "U",
    "NORAD_CAT_ID": 52357,
    "ELEMENT_SET_NO": 999,
    "REV_AT_EPOCH": 6989,
    "BSTAR": -0.00022739,
    "MEAN_MOTION_DOT": -3.907e-5,
    "MEAN_MOTION_DDOT": 0
}]
