STARLINK-3849
1 52343U 22045N   23198.08712329  .00000051  00000+0  21263-4 0  9998
2 52343  53.2157 228.3671 0000984  80.2746 279.8358 15.08840436 69724
STARLINK-3851
1 52344U 22045P   23198.40452662  .00000234  00000+0  32755-4 0  9997
2 52344  53.2162 217.0126 0000909  81.6432 278.4664 15.08843604 69900
STARLINK-3852
1 52345U 22045Q   23197.09076051 -.00000451  00000+0 -10273-4 0  9990
2 52345  53.2155 222.8426 0000935  80.9492 279.1606 15.08833752 69690
STARLINK-3812
1 52346U 22045R   23197.40451933 -.00000236  00000+0  32457-5 0  9991
2 52346  53.2149 221.4395 0000834  88.6134 271.4954 15.08837581 69752
STARLINK-3826
1 52347U 22045S   23197.08435813  .00000484  00000+0  48521-4 0  9997
2 52347  53.2155 222.8780 0001092  77.7172 282.3942 15.08834952 69703
STARLINK-3829
1 52348U 22045T   23197.32996453  .00000760  00000+0  65857-4 0  9995
2 52348  53.2161 221.7686 0001082  86.4877 273.6239 15.08834436 69745
STARLINK-3819
1 52349U 22045U   23198.46707939  .00000471  00000+0  47659-4 0  9990
2 52349  53.2159 216.6633 0001011  92.3256 267.7852 15.08841578 69916
STARLINK-3754
1 52350U 22045V   23197.78996428  .00000442  00000+0  45863-4 0  9992
2 52350  53.2160 219.7037 0001143  82.0721 278.0401 15.08838272 69812
STARLINK-3838
1 52352U 22045X   23198.30883885  .00000831  00000+0  70273-4 0  9990
2 52352  53.2159 217.3738 0000997  84.2448 275.8658 15.08841579 69891
STARLINK-3807
1 52353U 22045Y   23197.32260076 -.00000806  00000+0 -32548-4 0  9990
2 52353  53.2155 221.8018 0001322 108.9992 251.1143 15.08833936 69748
STARLINK-3876
1 52354U 22045Z   23198.43028315  .00001205  00000+0  93793-4 0  9993
2 52354  53.2151 216.8278 0000993  87.3401 272.7705 15.08839499 69917
STARLINK-3877
1 52355U 22045AA  23198.31252174  .00000371  00000+0  41360-4 0  9999
2 52355  53.2162 217.3576 0000925  88.3028 271.8070 15.08841335 69892
STARLINK-3801
1 52356U 22045AB  23198.03652823  .00000224  00000+0  32160-4 0  9999
2 52356  53.2170 218.6251 0001062  98.1862 261.9250 15.08837677 69854
STARLINK-3821
1 52357U 22045AC  23198.30515574 -.00003907  00000+0 -22739-3 0  9994
2 52357  53.2169 217.3902 0001029  88.5734 271.5376 15.08862007 69891
